GPS BIIA-10 (PRN 32)    
1 20959U 90103A   15346.32460024  .00000089  00000-0  00000+0 0  9994
2 20959  54.2494 187.0286 0113281   9.8659 350.4278  2.00566584183412
GPS BIIR-2  (PRN 13)    
1 24876U 97035A   15346.13952091  .00000022  00000-0  00000+0 0  9993
2 24876  55.7262 248.9127 0044428 116.5377 243.9895  2.00562184134737
GPS BIIR-3  (PRN 11)    
1 25933U 99055A   15346.46251637 -.00000002  00000-0  00000+0 0  9995
2 25933  51.2811 101.9197 0160616  85.1724  71.4814  2.00566307118551
GPS BIIR-4  (PRN 20)    
1 26360U 00025A   15346.59318624  .00000086  00000-0  00000+0 0  9994
2 26360  53.0695 177.9357 0048099  73.2949 282.2942  2.00562948114258
GPS BIIR-5  (PRN 28)    
1 26407U 00040A   15346.46802557 -.00000045  00000-0  00000+0 0  9998
2 26407  56.6930   6.6850 0202218 266.0748 275.9825  2.00560922112922
GPS BIIR-6  (PRN 14)    
1 26605U 00071A   15346.50301904  .00000025  00000-0  00000+0 0  9994
2 26605  55.2955 246.8389 0085518 249.0214 253.8488  2.00560827110528
GPS BIIR-7  (PRN 18)    
1 26690U 01004A   15346.61460141  .00000086  00000-0  00000+0 0  9993
2 26690  52.9988 180.9172 0166093 249.9442  66.7361  2.00565819108939
GPS BIIR-8  (PRN 16)    
1 27663U 03005A   15345.79087066 -.00000045  00000-0  00000+0 0  9992
2 27663  56.7695   6.4168 0081952  16.2723 161.4984  2.00564490 94270
GPS BIIR-9  (PRN 21)    
1 27704U 03010A   15346.45099088  .00000029  00000-0  00000+0 0  9996
2 27704  53.5847 121.1917 0230110 253.9020   0.5036  2.00559075 93081
GPS BIIR-10 (PRN 22)    
1 28129U 03058A   15344.72747523  .00000093  00000-0  00000+0 0  9993
2 28129  52.8747 181.0423 0082071 243.2788 115.9465  2.00563688 87754
GPS BIIR-11 (PRN 19)    
1 28190U 04009A   15346.34476700 -.00000031  00000-0  00000+0 0  9997
2 28190  55.6738  67.8668 0111504  37.1406  14.3994  2.00388212 85964
GPS BIIR-12 (PRN 23)    
1 28361U 04023A   15346.53362244  .00000030  00000-0  00000+0 0  9999
2 28361  54.2605 242.5151 0104978 210.9934 207.4724  2.00553138 84051
GPS BIIR-13 (PRN 02)    
1 28474U 04045A   15346.50253420  .00000029  00000-0  00000+0 0  9998
2 28474  53.9779 120.4344 0152827 234.2977 163.9852  2.00562151 81414
GPS BIIRM-1 (PRN 17)    
1 28874U 05038A   15346.28099907 -.00000033  00000-0  00000+0 0  9994
2 28874  55.8416  65.0549 0109958 246.8440  97.2016  2.00571613 74819
GPS BIIRM-2 (PRN 31)    
1 29486U 06042A   15346.56260153 -.00000040  00000-0  00000+0 0  9992
2 29486  55.7566 304.3526 0084286 331.0651 138.9861  2.00566150 67537
GPS BIIRM-3 (PRN 12)    
1 29601U 06052A   15345.85514824 -.00000045  00000-0  00000+0 0  9995
2 29601  56.7395   5.3405 0054605  34.5064 325.9016  2.00577137 66431
GPS BIIRM-4 (PRN 15)    
1 32260U 07047A   15346.17524946  .00000033  00000-0  00000+0 0  9993
2 32260  53.3906 239.3648 0077794  24.2103 336.2401  2.00552351 59828
GPS BIIRM-5 (PRN 29)    
1 32384U 07062A   15346.57495810 -.00000031  00000-0  00000+0 0  9997
2 32384  55.8940  65.5907 0010563 315.6939 107.4593  2.00566856 58567
GPS BIIRM-6 (PRN 07)    
1 32711U 08012A   15346.08562070 -.00000042  00000-0  00000+0 0  9998
2 32711  55.4788 303.8782 0091243 207.8282 151.6749  2.00562330 56748
GPS BIIRM-8 (PRN 05)    
1 35752U 09043A   15346.31387773  .00000090  00000-0  00000+0 0  9994
2 35752  54.2240 181.9304 0044643  24.9207 169.7340  2.00560791 46327
GPS BIIF-1  (PRN 25)    
1 36585U 10022A   15346.07988289 -.00000047  00000-0  00000+0 0  9993
2 36585  56.0725   2.5282 0046500  37.9584  92.4870  2.00573996 40560
GPS BIIF-2  (PRN 01)    
1 37753U 11036A   15346.35219554  .00000033  00000-0  00000+0 0  9994
2 37753  55.1980 122.8408 0047774  25.8817  26.1845  2.00565438 32251
GPS BIIF-3  (PRN 24)    
1 38833U 12053A   15346.26929549 -.00000042  00000-0  00000+0 0  9997
2 38833  54.5119 301.3339 0038373  14.4464 345.6563  2.00566880 23339
GPS BIIF-4  (PRN 27)    
1 39166U 13023A   15346.12757363 -.00000036  00000-0  00000+0 0  9996
2 39166  55.5511  62.2573 0027953   9.7573 350.3381  2.00559421 18854
GPS BIIF-5  (PRN 30)    
1 39533U 14008A   15346.12675552 -.00000045  00000-0  00000+0 0  9997
2 39533  54.6641 306.5423 0016638 187.3766 172.5915  2.00564750 13212
GPS BIIF-6  (PRN 06)    
1 39741U 14026A   15345.90580325  .00000031  00000-0  00000+0 0  9990
2 39741  55.1896 122.3740 0003343 228.7321 131.2070  2.00572441 11491
GPS BIIF-7  (PRN 09)    
1 40105U 14045A   15345.99866072  .00000031  00000-0  00000+0 0  9992
2 40105  54.7779 242.1483 0002865 132.0828 228.0237  2.00562906  9957
GPS BIIF-8  (PRN 03)    
1 40294U 14068A   15346.36090287  .00000091  00000-0  00000+0 0  9991
2 40294  54.9610 182.4821 0004639 212.5620 147.4724  2.00578561  8171
GPS BIIF-9  (PRN 26)    
1 40534U 15013A   15346.00484493 -.00000049  00000-0  00000+0 0  9990
2 40534  55.0438   2.1850 0006286 321.1824  38.8201  2.00563382  5233
GPS BIIF-10  (PRN 08)   
1 40730U 15033A   15345.16869054 -.00000042  00000-0  00000+0 0  9999
2 40730  55.0874  62.2179 0018469 268.6751  91.1497  2.00570388  2977
GPS BIIF-11  (PRN 10)   
1 41019U 15062A   15339.39193380  .00000082  00000-0  00000+0 0  9995
2 41019  54.9865 182.5263 0008710 205.6679 154.3216  1.97373612   687
